[{"OBJECT_NAME":"CONTINUUM-1","OBJECT_ID":"2023-001AN","EPOCH":"2026-03-09T23:17:35.458656","MEAN_MOTION":15.27981258,"ECCENTRICITY":0.00109493,"INCLINATION":97.3456,"RA_OF_ASC_NODE":133.3964,"ARG_OF_PERICENTER":60.1976,"MEAN_ANOMALY":300.0351,"EPHEMERIS_TYPE":0,"CLASSIFICATION_TYPE":"U","NORAD_CAT_ID":55045,"ELEMENT_SET_NO":999,"REV_AT_EPOCH":17709,"BSTAR":0.00052859897,"MEAN_MOTION_DOT":0.00014395,"MEAN_MOTION_DDOT":0},{"OBJECT_NAME":"STARLINK-34720","OBJECT_ID":"2025-259AD","EPOCH":"2026-03-09T22:08:57.300288","MEAN_MOTION":15.27603998,"ECCENTRICITY":0.0002116,"INCLINATION":42.9991,"RA_OF_ASC_NODE":273.3072,"ARG_OF_PERICENTER":251.1839,"MEAN_ANOMALY":108.8783,"EPHEMERIS_TYPE":0,"CLASSIFICATION_TYPE":"U","NORAD_CAT_ID":66449,"ELEMENT_SET_NO":999,"REV_AT_EPOCH":1941,"BSTAR":0.0015886871,"MEAN_MOTION_DOT":0.00043748,"MEAN_MOTION_DDOT":0}]
